[{"OBJECT_ID":"2003-034B","OBJECT_NAME":"BLOCK DM-SL R/B","NORAD_CAT_ID":"27855","OBJECT_TYPE":"ROCKET BODY","PERIOD":"641.020","INCLINATION":"0.2442","APOGEE":"35829.963","PERIGEE":"667.400","ECCENTRICITY":"0.713908","MEAN_MOTION":"2.24641683","TLE_LINE1":"1 27855U 03034B   16239.16795332 -.00000191  00000-0  55919-3 0  9998","TLE_LINE2":"2 27855   0.2442 223.9987 7139080 133.7561 352.8668  2.24641683107131","LAUNCH_DATE":"2003-08-08","LAUNCH_SITE":"SEA LAUNCH","OWNER":"SEA LAUNCH DEMO","ORBIT_TYPE":"Highly Elliptical Orbit","OPERATIONAL_STATUS":"N/A, derelict rocket body","satInfo":{"lng":-174.49239795180603,"lat":0.010756288675302436,"elevation":-22.741211597027217,"azimuth":129.492397951806,"range":16437.62449755137,"height":8781.631390184095,"velocity":6.032670209427921},"x":-7,"y":69,"dx":-6.00482022281866,"dy":-0.5790025451992143},{"OBJECT_ID":"2003-044B","OBJECT_NAME":"BLOCK DM-SL R/B","NORAD_CAT_ID":"27953","OBJECT_TYPE":"ROCKET BODY","PERIOD":"671.565","INCLINATION":"0.7946","APOGEE":"35769.176","PERIGEE":"2280.657","ECCENTRICITY":"0.6591436","MEAN_MOTION":"2.14424259","TLE_LINE1":"1 27953U 03044B   16238.56483914 -.00000132 +00000-0 +00000-0 0  9994","TLE_LINE2":"2 27953 000.7946 038.6462 6591436 066.8064 333.6825 02.14424259101035","LAUNCH_DATE":"2003-10-01","LAUNCH_SITE":"SEA LAUNCH","OWNER":"SEA LAUNCH DEMO","ORBIT_TYPE":"Highly Elliptical Orbit","OPERATIONAL_STATUS":"N/A, derelict rocket body","satInfo":{"lng":62.880506698968034,"lat":2.403074788446041,"elevation":-7.050467414987048,"azimuth":252.11949330103192,"range":38681.30523385566,"height":32044.428521283884,"velocity":2.2489204857814826},"x":213,"y":-115,"dx":1.0251653458402235,"dy":2.001669144752927},{"OBJECT_ID":"2003-053B","OBJECT_NAME":"YAMAL 201","NORAD_CAT_ID":"28094","OBJECT_TYPE":"PAYLOAD","PERIOD":"1436.394","INCLINATION":"1.68","APOGEE":"35805.899","PERIGEE":"35778.927","ECCENTRICITY":"0.0003198","MEAN_MOTION":"1.0025104","TLE_LINE1":"1 28094U 03053B   16238.80843432 -.00000250 +00000-0 +00000-0 0  9994","TLE_LINE2":"2 28094 001.6800 081.2880 0003198 174.2521 099.5838 01.00251040048951","LAUNCH_DATE":"2003-11-24","LAUNCH_SITE":"TYURATAM MISSILE AND SPACE COMPLEX","OWNER":"COMMONWEALTH OF INDEPENDENT STATES","ORBIT_TYPE":"Geosynchronous","OPERATIONAL_STATUS":"Nonoperational","satInfo":{"lng":60.52310142580938,"lat":3.246729599935973,"elevation":-5.391036156989432,"azimuth":254.4768985741906,"range":42276.171313277264,"height":35778.63034038449,"velocity":3.0750586870019796},"x":232,"y":-139,"dx":1.5131521115869804,"dy":2.6770051579528573},{"OBJECT_ID":"2003-059A","OBJECT_NAME":"AMOS 2","NORAD_CAT_ID":"28132","OBJECT_TYPE":"PAYLOAD","PERIOD":"1436.107","INCLINATION":"0.1057","APOGEE":"35798.388","PERIGEE":"35775.222","ECCENTRICITY":"0.0002747","MEAN_MOTION":"1.00271041","TLE_LINE1":"1 28132U 03059A   16238.88284251 -.00000063 +00000-0 +00000-0 0  9991","TLE_LINE2":"2 28132 000.1057 089.6899 0002747 052.5415 146.0739 01.00271041046413","LAUNCH_DATE":"2003-12-27","LAUNCH_SITE":"TYURATAM MISSILE AND SPACE COMPLEX","OWNER":"ISRAEL","ORBIT_TYPE":"Geosynchronous","OPERATIONAL_STATUS":"Operational","satInfo":{"lng":38.08292443427068,"lat":2.4233699729589806,"elevation":-6.196630683044358,"azimuth":276.9170755657293,"range":42388.711535076036,"height":35800.59428307096,"velocity":3.074603642558921},"x":165,"y":-222,"dx":2.4200785725971308,"dy":1.8964195899886764},{"OBJECT_ID":"2004-001B","OBJECT_NAME":"BLOCK DM-SL R/B","NORAD_CAT_ID":"28138","OBJECT_TYPE":"ROCKET BODY","PERIOD":"640.843","INCLINATION":"0.3876","APOGEE":"35850.741","PERIGEE":"637.559","ECCENTRICITY":"0.7150673","MEAN_MOTION":"2.24703695","TLE_LINE1":"1 28138U 04001B   16238.71804335 -.00000161 +00000-0 -33674-3 0  9994","TLE_LINE2":"2 28138 000.3876 309.5824 7150673 160.7299 335.1557 02.24703695103665","LAUNCH_DATE":"2004-01-11","LAUNCH_SITE":"SEA LAUNCH","OWNER":"SEA LAUNCH DEMO","ORBIT_TYPE":"Highly Elliptical Orbit","OPERATIONAL_STATUS":"N/A, derelict rocket body","satInfo":{"lng":115.5215108957618,"lat":0.09910670072275683,"elevation":-32.97136123731734,"azimuth":199.47848910423818,"range":11650.238193099409,"height":3395.7597957294747,"velocity":8.085081479607657},"x":23,"y":11,"dx":-3.4834567849149747,"dy":7.296168265570947},{"OBJECT_ID":"2004-007A","OBJECT_NAME":"MBSAT","NORAD_CAT_ID":"28184","OBJECT_TYPE":"PAYLOAD","PERIOD":"1436.082","INCLINATION":"0.019","APOGEE":"35793.732","PERIGEE":"35778.907","ECCENTRICITY":"0.0001758","MEAN_MOTION":"1.00272774","TLE_LINE1":"1 28184U 04007A   16239.03591009  .00000013  00000-0  00000+0 0  9995","TLE_LINE2":"2 28184   0.0190 230.2828 0001758 276.8539 261.4837  1.00272774 45663","LAUNCH_DATE":"2004-03-13","LAUNCH_SITE":"AIR FORCE EASTERN TEST RANGE","OWNER":"PEOPLES REPUBLIC OF CHINA","ORBIT_TYPE":"Geosynchronous","OPERATIONAL_STATUS":"Operational","satInfo":{"lng":89.30210239398448,"lat":0.1417586124919493,"elevation":-8.436208786841142,"azimuth":225.69789760601546,"range":42621.45829646179,"height":35782.27820373432,"velocity":3.075020850629073},"x":267,"y":-3,"dx":0.03745470681211609,"dy":3.074792737200536},{"OBJECT_ID":"2004-008A","OBJECT_NAME":"EUTE 7A (EUTE W3A)","NORAD_CAT_ID":"28187","OBJECT_TYPE":"PAYLOAD","PERIOD":"1436.078","INCLINATION":"0.0669","APOGEE":"35809.441","PERIGEE":"35763.026","ECCENTRICITY":"0.0005504","MEAN_MOTION":"1.0027308","TLE_LINE1":"1 28187U 04008A   16239.25468428  .00000020  00000-0  00000+0 0  9999","TLE_LINE2":"2 28187   0.0669  15.2277 0005504 154.9391 263.4278  1.00273080 45663","LAUNCH_DATE":"2004-03-15","LAUNCH_SITE":"TYURATAM MISSILE AND SPACE COMPLEX","OWNER":"EUROPEAN TELECOMMUNICATIONS SATELLITE ORGANIZATION (EUTELSAT)","ORBIT_TYPE":"Geosynchronous","OPERATIONAL_STATUS":"Operational","satInfo":{"lng":7.825711251342834,"lat":0.3520331649641397,"elevation":-8.231861857177728,"azimuth":307.1742887486571,"range":42592.6225433773,"height":35776.43851575727,"velocity":3.0755431999801464},"x":36,"y":-279,"dx":3.0469001706873797,"dy":0.41876643228574884},{"OBJECT_ID":"2004-017A","OBJECT_NAME":"AMC-11 (GE-11)","NORAD_CAT_ID":"28252","OBJECT_TYPE":"PAYLOAD","PERIOD":"1436.089","INCLINATION":"0.0666","APOGEE":"35796.167","PERIGEE":"35776.754","ECCENTRICITY":"0.0002302","MEAN_MOTION":"1.00272271","TLE_LINE1":"1 28252U 04017A   16239.28849759  .00000041  00000-0  00000+0 0  9998","TLE_LINE2":"2 28252   0.0666 291.2683 0002302 230.3477 146.2074  1.00272271 44782","LAUNCH_DATE":"2004-05-19","LAUNCH_SITE":"AIR FORCE EASTERN TEST RANGE","OWNER":"SOCIÉTÉ EUROPÉENNE DES SATELLITES","ORBIT_TYPE":"Geosynchronous","OPERATIONAL_STATUS":"Operational","satInfo":{"lng":-112.78689086733155,"lat":2.107539296367845,"elevation":-6.510692050785047,"azimuth":67.78689086733152,"range":42405.0262483749,"height":35781.89681806037,"velocity":3.0745427240207452},"x":-247,"y":109,"dx":-1.190784713011442,"dy":-2.834580168047318},{"OBJECT_ID":"2004-022A","OBJECT_NAME":"INTELSAT 1002","NORAD_CAT_ID":"28358","OBJECT_TYPE":"PAYLOAD","PERIOD":"1436.097","INCLINATION":"0.0109","APOGEE":"35789.070","PERIGEE":"35784.153","ECCENTRICITY":"5.83e-05","MEAN_MOTION":"1.00271731","TLE_LINE1":"1 28358U 04022A   16238.74960780 -.00000038  00000-0  00000+0 0  9996","TLE_LINE2":"2 28358   0.0109 141.8036 0000583  18.8257  82.6648  1.00271731 44709","LAUNCH_DATE":"2004-06-16","LAUNCH_SITE":"TYURATAM MISSILE AND SPACE COMPLEX","OWNER":"INTERNATIONAL TELECOMMUNICATIONS SATELLITE ORGANIZATION (INTELSAT)","ORBIT_TYPE":"Geosynchronous","OPERATIONAL_STATUS":"Operational","satInfo":{"lng":19.8875342952655,"lat":0.6157223526227497,"elevation":-7.969123242012201,"azimuth":295.1124657047345,"range":42587.60274031014,"height":35800.627099993944,"velocity":3.0742612488390826},"x":91,"y":-265,"dx":2.8909189493282113,"dy":1.0457867156015639},{"OBJECT_ID":"2004-024A","OBJECT_NAME":"APSTAR 5 (TELSTAR 18)","NORAD_CAT_ID":"28364","OBJECT_TYPE":"PAYLOAD","PERIOD":"1436.110","INCLINATION":"0.0543","APOGEE":"35798.309","PERIGEE":"35775.405","ECCENTRICITY":"0.0002716","MEAN_MOTION":"1.00270856","TLE_LINE1":"1 28364U 04024A   16238.92132579 -.00000322 +00000-0 +00000-0 0  9999","TLE_LINE2":"2 28364 000.0543 273.7806 0002716 240.4607 290.0166 01.00270856044684","LAUNCH_DATE":"2004-06-29","LAUNCH_SITE":"SEA LAUNCH","OWNER":"PEOPLES REPUBLIC OF CHINA","ORBIT_TYPE":"Geosynchronous","OPERATIONAL_STATUS":"Operational","satInfo":{"lng":133.84481552658517,"lat":0.22126974406272037,"elevation":-8.359593800860823,"azimuth":181.15518447341483,"range":42607.3904964574,"height":35776.868600155525,"velocity":3.075070892688131},"x":192,"y":195,"dx":-2.1301246931955253,"dy":2.217798409796627},{"OBJECT_ID":"2004-024B","OBJECT_NAME":"BLOCK DM-SL R/B","NORAD_CAT_ID":"28365","OBJECT_TYPE":"ROCKET BODY","PERIOD":"385.696","INCLINATION":"0.0611","APOGEE":"21635.398","PERIGEE":"712.121","ECCENTRICITY":"0.5960404","MEAN_MOTION":"3.73350499","TLE_LINE1":"1 28365U 04024B   16238.79425027 +.00000085 +00000-0 +99502-3 0  9991","TLE_LINE2":"2 28365 000.0611 039.9423 5960404 188.9025 340.9476 03.73350499165902","LAUNCH_DATE":"2004-06-29","LAUNCH_SITE":"SEA LAUNCH","OWNER":"SEA LAUNCH DEMO","ORBIT_TYPE":"Highly Elliptical Orbit","OPERATIONAL_STATUS":"N/A, derelict rocket body","satInfo":{"lng":-15.358326294616187,"lat":0.573498804414328,"elevation":-12.754628682067766,"azimuth":330.35832629461623,"range":27576.89352394931,"height":20519.627839423192,"velocity":2.631060415757659},"x":-41,"y":-156,"dx":2.5371007746708174,"dy":-0.6968490299423579}]